0 DELTA 1 DEB
1 10864U 76077CS  13282.52150965  .00000100  00000-0  18422-2 0  7128
2 10864 101.0668 107.9939 0378347 012.1878 010.6389 11.74773886597178
0 DELTA 1 DEB
1 10864U 76077CS  13284.00022032  .00000114  00000-0  20318-2 0  7139
2 10864 101.0665 109.1836 0378402 009.6604 144.3817 11.74774430597341
0 DELTA 1 DEB
1 10864U 76077CS  13286.04517891  .00000096  00000-0  17884-2 0  7152
2 10864 101.0662 110.8290 0378539 006.1632 152.8965 11.74775245597584
0 DELTA 1 DEB
1 10864U 76077CS  13287.46133374  .00000089  00000-0  16986-2 0  7164
2 10864 101.0659 111.9684 0378624 003.7417 022.0853 11.74775676597759
0 DELTA 1 DEB
1 10864U 76077CS  13288.48985588  .00000091  00000-0  17151-2 0  7178
2 10864 101.0658 112.7959 0378666 001.9836 051.9014 11.74776244597878
0 DELTA 1 DEB
1 10864U 76077CS  13289.50505324  .00000072  00000-0  14508-2 0  7181
2 10864 101.0659 113.6128 0378734 000.2477 025.3668 11.74776439597995
0 DELTA 1 DEB
1 10864U 76077CS  13290.79198045  .00000088  00000-0  16808-2 0  7195
2 10864 101.0659 114.6482 0378809 358.0488 068.0320 11.74776587598149
0 DELTA 1 DEB
1 10864U 76077CS  13292.08056767  .00000082  00000-0  15970-2 0  7208
2 10864 101.0659 115.6849 0378910 355.8478 117.7160 11.74777020598297
0 DELTA 1 DEB
1 10864U 76077CS  13293.10297269  .00000104  00000-0  19066-2 0  7212
2 10864 101.0659 116.5074 0378912 354.0994 121.6678 11.74777223598410
0 DELTA 1 DEB
1 10864U 76077CS  13294.44425270  .00000110  00000-0  19954-2 0  7229
2 10864 101.0658 117.5864 0378956 351.8092 034.2037 11.74777386598574
0 DELTA 1 DEB
1 10864U 76077CS  13295.47244225  .00000095  00000-0  17818-2 0  7232
2 10864 101.0657 118.4136 0379010 350.0541 062.6171 11.74777412598694
